STARLINK-31327          
1 59160U 24044J   26068.10138726 -.00001514  00000+0 -45536-4 0  9994
2 59160  42.9989 110.5181 0000142 312.1995  47.8844 15.27571368113508
COSMOS 2576             
1 59773U 24092A   26068.82603826  .00015211  00000+0  56283-3 0  9991
2 59773  97.4253 186.0053 0005946 159.7731 200.3745 15.27760963101271
