[{"OBJECT_NAME":"STARLINK-31327","OBJECT_ID":"2024-044J","EPOCH":"2026-03-09T02:25:59.859264","MEAN_MOTION":15.27571368,"ECCENTRICITY":1.424e-5,"INCLINATION":42.9989,"RA_OF_ASC_NODE":110.5181,"ARG_OF_PERICENTER":312.1995,"MEAN_ANOMALY":47.8844,"EPHEMERIS_TYPE":0,"CLASSIFICATION_TYPE":"U","NORAD_CAT_ID":59160,"ELEMENT_SET_NO":999,"REV_AT_EPOCH":11350,"BSTAR":-4.5536342e-5,"MEAN_MOTION_DOT":-1.514e-5,"MEAN_MOTION_DDOT":0},{"OBJECT_NAME":"COSMOS 2576","OBJECT_ID":"2024-092A","EPOCH":"2026-03-09T19:49:29.705664","MEAN_MOTION":15.27760963,"ECCENTRICITY":0.0005946,"INCLINATION":97.4253,"RA_OF_ASC_NODE":186.0053,"ARG_OF_PERICENTER":159.7731,"MEAN_ANOMALY":200.3745,"EPHEMERIS_TYPE":0,"CLASSIFICATION_TYPE":"U","NORAD_CAT_ID":59773,"ELEMENT_SET_NO":999,"REV_AT_EPOCH":10127,"BSTAR":0.00056283,"MEAN_MOTION_DOT":0.00015211,"MEAN_MOTION_DDOT":0}]
